[Satellite]
VERSION=1.1
NAME=MOLNIYA 1-56
NICKNAME=MOLNIYA 1-56
TLE1=1 13890U 83019A   18020.12240766 -.00000373  00000-0  00000-0 0  9995
TLE2=2 13890  63.3650 226.6355 6899176 263.5119 186.6871  1.99948503254420
